{
  "type": "FeatureCollection",
  "features": [
    {
      "type": "Feature",
      "properties": {
        "norad_id": 63632,
        "name": "SHENZHOU-20 (SZ-20)",
        "group": "stations",
        "lat": -7.886595099449727,
        "lon": -134.49341590491602,
        "alt_km": 397.3501216542991,
        "timestamp": "2025-12-09T11:33:53.592524+00:00",
        "meta_object_name": "SHENZHOU-20 (SZ-20)",
        "meta_object_id": "2025-082A",
        "meta_epoch": "2025-12-08T14:45:28.776096",
        "meta_mean_motion": 15.58905517,
        "meta_eccentricity": 0.00091311,
        "meta_inclination": 41.4682,
        "meta_ra_of_asc_node": 41.7451,
        "meta_arg_of_pericenter": 357.4459,
        "meta_mean_anomaly": 2.6332,
        "meta_ephemeris_type": 0,
        "meta_classification_type": "U",
        "meta_norad_cat_id": 63632,
        "meta_element_set_no": 999,
        "meta_rev_at_epoch": 25530,
        "meta_bstar": 0.0003572809,
        "meta_mean_motion_dot": 0.0002832,
        "meta_mean_motion_ddot": 0,
        "tle_line1": "1 63632U 25082A   25342.61491639  .00028320  00000+0  35728-3 0  9994",
        "tle_line2": "2 63632  41.4682  41.7451 0009131 357.4459   2.6332 15.58905517255307"
      },
      "geometry": {
        "type": "Point",
        "coordinates": [
          -134.49341590491602,
          -7.886595099449727
        ]
      }
    },
    {
      "type": "Feature",
      "properties": {
        "norad_id": 64751,
        "name": "PROGRESS-MS 31",
        "group": "stations",
        "lat": -18.58434241094897,
        "lon": -5.941089696257346,
        "alt_km": 418.9918371792164,
        "timestamp": "2025-12-09T11:33:53.592534+00:00",
        "meta_object_name": "PROGRESS-MS 31",
        "meta_object_id": "2025-146A",
        "meta_epoch": "2025-12-08T20:45:25.501536",
        "meta_mean_motion": 15.49428834,
        "meta_eccentricity": 0.00033811,
        "meta_inclination": 51.6308,
        "meta_ra_of_asc_node": 161.6653,
        "meta_arg_of_pericenter": 221.9847,
        "meta_mean_anomaly": 138.0883,
        "meta_ephemeris_type": 0,
        "meta_classification_type": "U",
        "meta_norad_cat_id": 64751,
        "meta_element_set_no": 999,
        "meta_rev_at_epoch": 675,
        "meta_bstar": 0.00022803662,
        "meta_mean_motion_dot": 0.00012323,
        "meta_mean_motion_ddot": 0,
        "tle_line1": "1 64751U 25146A   25342.86487849  .00012323  00000+0  22804-3 0  9990",
        "tle_line2": "2 64751  51.6308 161.6653 0003381 221.9847 138.0883 15.49428834  6751"
      },
      "geometry": {
        "type": "Point",
        "coordinates": [
          -5.941089696257346,
          -18.58434241094897
        ]
      }
    },
    {
      "type": "Feature",
      "properties": {
        "norad_id": 64786,
        "name": "TIANZHOU-9",
        "group": "stations",
        "lat": -7.8865959057114825,
        "lon": -134.49341496407794,
        "alt_km": 397.350121727246,
        "timestamp": "2025-12-09T11:33:53.592543+00:00",
        "meta_object_name": "TIANZHOU-9",
        "meta_object_id": "2025-149A",
        "meta_epoch": "2025-12-08T14:45:28.776096",
        "meta_mean_motion": 15.58905517,
        "meta_eccentricity": 0.00091311,
        "meta_inclination": 41.4682,
        "meta_ra_of_asc_node": 41.7451,
        "meta_arg_of_pericenter": 357.4459,
        "meta_mean_anomaly": 2.6332,
        "meta_ephemeris_type": 0,
        "meta_classification_type": "U",
        "meta_norad_cat_id": 64786,
        "meta_element_set_no": 999,
        "meta_rev_at_epoch": 25530,
        "meta_bstar": 0.0003572809,
        "meta_mean_motion_dot": 0.0002832,
        "meta_mean_motion_ddot": 0,
        "tle_line1": "1 64786U 25149A   25342.61491639  .00028320  00000+0  35728-3 0  9999",
        "tle_line2": "2 64786  41.4682  41.7451 0009131 357.4459   2.6332 15.58905517255308"
      },
      "geometry": {
        "type": "Point",
        "coordinates": [
          -134.49341496407794,
          -7.8865959057114825
        ]
      }
    },
    {
      "type": "Feature",
      "properties": {
        "norad_id": 65077,
        "name": "CREW DRAGON 11",
        "group": "stations",
        "lat": -18.584343338304848,
        "lon": -5.941088848898156,
        "alt_km": 418.9918372451857,
        "timestamp": "2025-12-09T11:33:53.592553+00:00",
        "meta_object_name": "CREW DRAGON 11",
        "meta_object_id": "2025-166A",
        "meta_epoch": "2025-12-08T20:45:25.501536",
        "meta_mean_motion": 15.49428834,
        "meta_eccentricity": 0.00033811,
        "meta_inclination": 51.6308,
        "meta_ra_of_asc_node": 161.6653,
        "meta_arg_of_pericenter": 221.9847,
        "meta_mean_anomaly": 138.0883,
        "meta_ephemeris_type": 0,
        "meta_classification_type": "U",
        "meta_norad_cat_id": 65077,
        "meta_element_set_no": 999,
        "meta_rev_at_epoch": 214,
        "meta_bstar": 0.00022803662,
        "meta_mean_motion_dot": 0.00012323,
        "meta_mean_motion_ddot": 0,
        "tle_line1": "1 65077U 25166A   25342.86487849  .00012323  00000+0  22804-3 0  9994",
        "tle_line2": "2 65077  51.6308 161.6653 0003381 221.9847 138.0883 15.49428834  2142"
      },
      "geometry": {
        "type": "Point",
        "coordinates": [
          -5.941088848898156,
          -18.584343338304848
        ]
      }
    },
    {
      "type": "Feature",
      "properties": {
        "norad_id": 65304,
        "name": "DRAGON CRS-33",
        "group": "stations",
        "lat": -18.584343826387286,
        "lon": -5.941088402919248,
        "alt_km": 418.9918372799093,
        "timestamp": "2025-12-09T11:33:53.592563+00:00",
        "meta_object_name": "DRAGON CRS-33",
        "meta_object_id": "2025-186A",
        "meta_epoch": "2025-12-08T20:45:25.501536",
        "meta_mean_motion": 15.49428834,
        "meta_eccentricity": 0.00033811,
        "meta_inclination": 51.6308,
        "meta_ra_of_asc_node": 161.6653,
        "meta_arg_of_pericenter": 221.9847,
        "meta_mean_anomaly": 138.0883,
        "meta_ephemeris_type": 0,
        "meta_classification_type": "U",
        "meta_norad_cat_id": 65304,
        "meta_element_set_no": 999,
        "meta_rev_at_epoch": 11,
        "meta_bstar": 0.00022803662,
        "meta_mean_motion_dot": 0.00012323,
        "meta_mean_motion_ddot": 0,
        "tle_line1": "1 65304U 25186A   25342.86487849  .00012323  00000+0  22804-3 0  9999",
        "tle_line2": "2 65304  51.6308 161.6653 0003381 221.9847 138.0883 15.49428834   110"
      },
      "geometry": {
        "type": "Point",
        "coordinates": [
          -5.941088402919248,
          -18.584343826387286
        ]
      }
    },
    {
      "type": "Feature",
      "properties": {
        "norad_id": 65586,
        "name": "PROGRESS-MS 32",
        "group": "stations",
        "lat": -18.584344314469742,
        "lon": -5.9410879569403425,
        "alt_km": 418.9918373146302,
        "timestamp": "2025-12-09T11:33:53.592573+00:00",
        "meta_object_name": "PROGRESS-MS 32",
        "meta_object_id": "2025-204A",
        "meta_epoch": "2025-12-08T20:45:25.501536",
        "meta_mean_motion": 15.49428834,
        "meta_eccentricity": 0.00033811,
        "meta_inclination": 51.6308,
        "meta_ra_of_asc_node": 161.6653,
        "meta_arg_of_pericenter": 221.9847,
        "meta_mean_anomaly": 138.0883,
        "meta_ephemeris_type": 0,
        "meta_classification_type": "U",
        "meta_norad_cat_id": 65586,
        "meta_element_set_no": 999,
        "meta_rev_at_epoch": 27,
        "meta_bstar": 0.00022803662,
        "meta_mean_motion_dot": 0.00012323,
        "meta_mean_motion_ddot": 0,
        "tle_line1": "1 65586U 25204A   25342.86487849  .00012323  00000+0  22804-3 0  9992",
        "tle_line2": "2 65586  51.6308 161.6653 0003381 221.9847 138.0883 15.49428834   279"
      },
      "geometry": {
        "type": "Point",
        "coordinates": [
          -5.9410879569403425,
          -18.584344314469742
        ]
      }
    },
    {
      "type": "Feature",
      "properties": {
        "norad_id": 65616,
        "name": "CYGNUS NG-23",
        "group": "stations",
        "lat": -18.584344802551552,
        "lon": -5.941087510961984,
        "alt_km": 418.99183734935013,
        "timestamp": "2025-12-09T11:33:53.592583+00:00",
        "meta_object_name": "CYGNUS NG-23",
        "meta_object_id": "2025-208A",
        "meta_epoch": "2025-12-08T20:45:25.501536",
        "meta_mean_motion": 15.49428834,
        "meta_eccentricity": 0.00033811,
        "meta_inclination": 51.6308,
        "meta_ra_of_asc_node": 161.6653,
        "meta_arg_of_pericenter": 221.9847,
        "meta_mean_anomaly": 138.0883,
        "meta_ephemeris_type": 0,
        "meta_classification_type": "U",
        "meta_norad_cat_id": 65616,
        "meta_element_set_no": 999,
        "meta_rev_at_epoch": 22,
        "meta_bstar": 0.00022803662,
        "meta_mean_motion_dot": 0.00012323,
        "meta_mean_motion_ddot": 0,
        "tle_line1": "1 65616U 25208A   25342.86487849  .00012323  00000+0  22804-3 0  9990",
        "tle_line2": "2 65616  51.6308 161.6653 0003381 221.9847 138.0883 15.49428834   228"
      },
      "geometry": {
        "type": "Point",
        "coordinates": [
          -5.941087510961984,
          -18.584344802551552
        ]
      }
    }
  ]
}